{"type":"Feature","properties":{"name":"mask"},"geometry":{"type":"Polygon","coordinates":[[[-190,-85],[190,-85],[190,85],[-190,85],[-190,-85]],[[85.3917,24.5299],[85.3313,24.5098],[85.3534,24.5225],[85.2883,24.523],[85.2827,24.4915],[85.2497,24.4907],[85.226,24.4632],[85.1616,24.4606],[85.1535,24.4479],[85.1753,24.4223],[85.0878,24.3704],[85.0728,24.3807],[85.0797,24.4334],[85.0619,24.4074],[85.0283,24.4154],[84.9753,24.3749],[84.904,24.3723],[84.8819,24.4246],[84.8875,24.4632],[84.8536,24.4664],[84.8399,24.4524],[84.8389,24.5127],[84.8028,24.5304],[84.786,24.5034],[84.6864,24.4566],[84.6652,24.391],[84.5674,24.4093],[84.5724,24.3829],[84.5279,24.3749],[84.5316,24.3387],[84.4961,24.2863],[84.4852,24.3067],[84.5033,24.3292],[84.4836,24.313],[84.46,24.3374],[84.4245,24.3297],[84.4307,24.3567],[84.4005,24.3646],[84.4067,24.3749],[84.388,24.3887],[84.3419,24.3932],[84.3345,24.4204],[84.3205,24.4212],[84.3357,24.4312],[84.2974,24.449],[84.2912,24.4662],[84.3261,24.49],[84.2965,24.5608],[84.2706,24.56],[84.2797,24.5473],[84.2569,24.527],[84.2354,24.5502],[84.213,24.5354],[84.1884,24.5534],[84.1729,24.5452],[84.1781,24.5053],[84.1564,24.5108],[84.1632,24.5336],[84.1458,24.5376],[84.1408,24.5005],[84.1084,24.4775],[84.0857,24.5063],[84.0931,24.5344],[84.0505,24.5867],[84.052,24.6103],[84.0084,24.6428],[83.9362,24.5495],[83.8727,24.532],[83.7995,24.5296],[83.7185,24.5034],[83.5033,24.5254],[83.4971,24.5391],[83.5301,24.5674],[83.5236,24.6029],[83.5479,24.623],[83.5005,24.6513],[83.5205,24.6774],[83.485,24.7015],[83.4893,24.7364],[83.4582,24.7317],[83.428,24.7682],[83.3934,24.7822],[83.395,24.8343],[83.3576,24.8705],[83.3694,24.88],[83.3548,24.9054],[83.3617,24.9538],[83.3433,24.9633],[83.3504,25.0088],[83.3202,25.0173],[83.3433,25.0509],[83.3501,25.1133],[83.3673,25.1252],[83.3573,25.1997],[83.4021,25.209],[83.4155,25.25],[83.4669,25.2529],[83.4903,25.2894],[83.5055,25.2812],[83.5532,25.3087],[83.5401,25.3158],[83.5725,25.306],[83.5965,25.3277],[83.6488,25.3394],[83.6562,25.3682],[83.6936,25.3698],[83.683,25.3788],[83.7011,25.3946],[83.7101,25.3862],[83.7409,25.4102],[83.769,25.3864],[83.8079,25.4092],[83.8026,25.4293],[83.8465,25.4343],[83.8129,25.4483],[83.8163,25.4613],[83.8568,25.4687],[83.8761,25.5181],[84.0175,25.6149],[84.0813,25.6363],[84.0751,25.6953],[84.0891,25.7133],[84.1548,25.7294],[84.199,25.7022],[84.2059,25.6697],[84.2766,25.6594],[84.2999,25.6646],[84.2871,25.6765],[84.3239,25.6705],[84.3367,25.7432],[84.3902,25.7448],[84.4067,25.698],[84.427,25.6932],[84.4298,25.7112],[84.4534,25.7141],[84.4992,25.675],[84.5291,25.6826],[84.5397,25.7268],[84.5353,25.6906],[84.5574,25.6795],[84.5602,25.7368],[84.6347,25.7278],[84.6029,25.762],[84.6235,25.771],[84.6247,25.7918],[84.5509,25.8408],[84.5484,25.8286],[84.5307,25.8318],[84.5232,25.8601],[84.5437,25.859],[84.5341,25.8762],[84.4276,25.8913],[84.412,25.9307],[84.3541,25.9587],[84.2968,25.9452],[84.2071,26.0],[84.1701,25.9878],[84.1725,26.0246],[84.104,26.0928],[84.0561,26.1002],[84.0502,26.1298],[84.0274,26.1425],[84.0337,26.1605],[84.0091,26.1787],[84.0287,26.198],[84.0312,26.2173],[84.0125,26.2322],[84.0228,26.2377],[84.0866,26.2187],[84.1218,26.2586],[84.1663,26.2411],[84.1862,26.3131],[84.1769,26.3707],[84.0751,26.3874],[84.034,26.4117],[84.0175,26.4477],[83.9916,26.4323],[83.9082,26.4472],[83.9082,26.5191],[83.9402,26.5252],[83.9748,26.508],[83.9767,26.5334],[84.0087,26.5217],[84.0567,26.5487],[84.0891,26.6032],[84.0866,26.6391],[84.1588,26.6362],[84.1604,26.6246],[84.2815,26.5995],[84.3074,26.6164],[84.4195,26.6262],[84.4108,26.6701],[84.3304,26.6841],[84.3061,26.7497],[84.2491,26.7296],[84.2326,26.7536],[84.2597,26.8042],[84.2467,26.8597],[84.2196,26.8716],[84.166,26.8338],[84.1408,26.8528],[84.1464,26.8853],[84.1106,26.8986],[84.0981,26.8761],[84.0604,26.888],[84.0601,26.9203],[84.0321,26.9411],[84.0548,26.9602],[84.0458,26.9824],[84.0567,26.9898],[84.0374,27.0091],[84.0495,27.0432],[84.0,27.0686],[84.0302,27.0977],[83.9465,27.0908],[83.9592,27.1368],[83.9941,27.1752],[83.9701,27.2233],[83.9054,27.2574],[83.9321,27.3119],[83.91,27.3238],[83.8714,27.3074],[83.8369,27.3222],[83.8842,27.3709],[83.8309,27.4272],[83.8481,27.4489],[84.0162,27.4373],[84.0928,27.4904],[84.0975,27.5169],[84.1517,27.5169],[84.1492,27.4862],[84.2084,27.4687],[84.2105,27.4428],[84.2585,27.451],[84.294,27.3825],[84.62,27.3394],[84.6898,27.2217],[84.6876,27.1797],[84.673,27.171],[84.6876,27.1588],[84.6795,27.1138],[84.6462,27.0757],[84.6424,27.0477],[84.7583,27.003],[84.7816,27.0144],[84.7935,26.9961],[84.8234,27.021],[84.8916,26.97],[84.9623,26.9604],[84.9778,26.9377],[84.9688,26.9158],[85.061,26.8869],[85.0305,26.8753],[85.023,26.8552],[85.1918,26.8689],[85.179,26.7983],[85.2095,26.7589],[85.3344,26.7417],[85.4076,26.7917],[85.4543,26.7822],[85.5661,26.8409],[85.5757,26.8608],[85.5857,26.847],[85.6352,26.8724],[85.6427,26.8533],[85.7292,26.8087],[85.7236,26.674],[85.7476,26.6394],[85.8015,26.6243],[85.8167,26.6003],[85.8507,26.6085],[85.8491,26.5704],[85.9282,26.6161],[85.9472,26.6132],[85.9594,26.6513],[86.0282,26.6661],[86.1378,26.6294],[86.1359,26.6063],[86.191,26.6148],[86.196,26.5939],[86.2181,26.5886],[86.2521,26.6172],[86.3327,26.6196],[86.4972,26.5426],[86.542,26.5384],[86.5703,26.4966],[86.6924,26.4514],[86.7232,26.4257],[86.7466,26.4286],[86.7662,26.4588],[86.8465,26.4419],[86.8939,26.4617],[86.8933,26.4879],[86.9294,26.4897],[86.9334,26.5154],[87.0156,26.5312],[87.0424,26.5595],[87.0424,26.5876],[87.0708,26.5865],[87.091,26.4509],[87.1623,26.4046],[87.2564,26.4107],[87.2654,26.3736],[87.3118,26.3718],[87.3401,26.3477],[87.3681,26.408],[87.4637,26.4403],[87.5472,26.4181],[87.5883,26.3816],[87.6512,26.3935],[87.6584,26.3797],[87.6497,26.4059],[87.6777,26.4157],[87.6771,26.4355],[87.7337,26.4077],[87.7639,26.4101],[87.787,26.4675],[87.848,26.4368],[87.8885,26.4868],[87.9097,26.4583],[87.8985,26.4493],[87.924,26.4469],[87.9262,26.4186],[87.9919,26.3927],[87.9956,26.366],[88.0193,26.3638],[88.099,26.4561],[88.0909,26.4688],[88.1105,26.4977],[88.0981,26.5476],[88.146,26.5223],[88.1684,26.5535],[88.2183,26.5535],[88.217,26.5733],[88.231,26.5714],[88.2354,26.5447],[88.1821,26.5056],[88.1983,26.4847],[88.2276,26.4918],[88.2152,26.4773],[88.2728,26.4191],[88.2342,26.3919],[88.2444,26.3757],[88.2834,26.3779],[88.2995,26.3506],[88.2799,26.3305],[88.2531,26.3345],[88.2276,26.2848],[88.146,26.2501],[88.142,26.2263],[88.1164,26.2237],[88.0732,26.1753],[88.0349,26.1793],[88.0106,26.1454],[87.9751,26.143],[87.9819,26.1274],[87.9688,26.1192],[87.9888,26.1052],[87.9642,26.0949],[87.9822,26.0727],[87.9536,26.0753],[87.9489,26.0603],[87.9268,26.0841],[87.8863,26.0433],[87.8499,26.0391],[87.8349,25.9331],[87.8219,25.9357],[87.8097,25.9127],[87.8256,25.9111],[87.8296,25.8717],[87.9156,25.8535],[87.8891,25.8297],[87.9178,25.8162],[87.9,25.8072],[87.9044,25.7725],[87.9421,25.7744],[87.9679,25.726],[87.9987,25.7231],[88.0212,25.6964],[88.0492,25.7022],[88.0504,25.6543],[88.0361,25.6488],[88.0551,25.6448],[88.0345,25.6305],[88.0436,25.6104],[88.0215,25.5961],[88.0352,25.5811],[88.0208,25.5705],[88.0401,25.5737],[88.0314,25.5541],[88.0694,25.5261],[88.0732,25.4838],[88.0305,25.4906],[88.0124,25.5142],[88.0034,25.4975],[87.9595,25.5385],[87.924,25.5348],[87.9028,25.5049],[87.8841,25.5205],[87.8645,25.4676],[87.8393,25.4679],[87.8222,25.4372],[87.787,25.4494],[87.7649,25.3838],[87.7895,25.3769],[87.7929,25.3296],[87.8471,25.2984],[87.8465,25.2645],[87.8184,25.2421],[87.7627,25.2656],[87.711,25.2577],[87.692,25.3116],[87.6117,25.3129],[87.5849,25.3306],[87.5843,25.3492],[87.5516,25.3314],[87.5428,25.2812],[87.4874,25.2973],[87.5005,25.2598],[87.4737,25.2341],[87.4781,25.1944],[87.3965,25.2264],[87.3719,25.2063],[87.3277,25.2235],[87.2956,25.0887],[87.2414,25.117],[87.237,25.0892],[87.2128,25.091],[87.1458,25.0194],[87.1567,24.8811],[87.0761,24.8181],[87.0957,24.8028],[87.0698,24.7449],[87.081,24.7293],[87.048,24.6095],[87.02,24.6298],[86.9963,24.6201],[86.9783,24.6402],[86.953,24.6314],[86.9583,24.6489],[86.9415,24.6523],[86.9456,24.6357],[86.9088,24.5957],[86.9132,24.5479],[86.8814,24.574],[86.8568,24.5547],[86.8434,24.5748],[86.802,24.5703],[86.811,24.5992],[86.7734,24.6177],[86.7534,24.6179],[86.7351,24.5796],[86.6519,24.5703],[86.6083,24.6084],[86.5806,24.5666],[86.5591,24.5648],[86.5523,24.5362],[86.5277,24.5442],[86.4996,24.5098],[86.4835,24.4677],[86.4912,24.4281],[86.4679,24.4249],[86.4669,24.381],[86.4529,24.3725],[86.4131,24.3802],[86.3953,24.4154],[86.3492,24.4466],[86.3172,24.4416],[86.2761,24.4659],[86.3091,24.5111],[86.3007,24.5608],[86.3228,24.587],[86.2592,24.5783],[86.215,24.614],[86.2138,24.5944],[86.1836,24.5828],[86.1325,24.6034],[86.1154,24.6439],[86.1285,24.6989],[86.0942,24.7449],[86.0369,24.7407],[86.0553,24.7798],[85.9703,24.733],[85.941,24.7348],[85.8672,24.8046],[85.7781,24.7965],[85.7386,24.8192],[85.7074,24.7795],[85.7071,24.7245],[85.6813,24.6915],[85.6489,24.6846],[85.676,24.6164],[85.6679,24.5791],[85.6153,24.5807],[85.5807,24.6008],[85.5661,24.587],[85.5717,24.5616],[85.5408,24.5624],[85.5418,24.5317],[85.5237,24.5209],[85.4954,24.5455],[85.4343,24.528],[85.3802,24.5547],[85.3752,24.5537],[85.3976,24.5447],[85.3917,24.5299]]]}}